OBJECT_NAME,OBJECT_ID,EPOCH,MEAN_MOTION,ECCENTRICITY,INCLINATION,RA_OF_ASC_NODE,ARG_OF_PERICENTER,MEAN_ANOMALY,EPHEMERIS_TYPE,CLASSIFICATION_TYPE,NORAD_CAT_ID,ELEMENT_SET_NO,REV_AT_EPOCH,BSTAR,MEAN_MOTION_DOT,MEAN_MOTION_DDOT
FLORIPASAT-1,2019-093G,2026-07-20T13:21:18.479232,15.04166486,.00105545,97.7905,296.0392,320.0733,39.9715,0,U,44885,999,35766,.22401331E-3,.3048E-4,0
SHUNTIAN,2019-093H,2026-07-20T14:26:02.097888,14.95295461,.00103275,97.8007,289.5942,320.2052,39.8410,0,U,44886,999,35717,.16349049E-3,.1744E-4,0
ELEKTRO-L 3,2019-095A,2026-07-19T03:57:21.795840,1.00271683,.00014812,0.3374,82.3610,18.7927,331.1277,0,U,44903,999,2402,0,-.102E-5,0
GONETS-M 14,2019-096A,2026-07-20T14:46:57.241920,12.42871302,.00144434,82.5210,63.9124,79.6125,280.6582,0,U,44905,999,29783,.56987355E-3,.89E-6,0
GONETS-M 15,2019-096B,2026-07-20T13:33:11.656800,12.42883723,.00162036,82.5229,64.4108,101.2461,259.0441,0,U,44906,999,29779,.72752824E-3,.111E-5,0
GONETS-M 16,2019-096C,2026-07-20T14:10:18.137280,12.42893050,.00112335,82.5175,63.3315,139.9368,220.2542,0,U,44907,999,29778,.5444456E-3,.85E-6,0
RS-44 & BREEZE-KM R/B,2019-096E,2026-07-20T09:19:03.464256,12.79748857,.02184219,82.5239,317.6447,66.9076,295.4886,0,U,44909,999,30659,-.3471301E-4,.4E-7,0
JILIN-1 KUANFU 01,2020-003A,2026-07-20T12:48:36.105408,15.10884643,.00097894,97.5015,274.8392,178.5074,181.6187,0,U,45016,999,36036,.10072231E-3,.1614E-4,0
XINGYUN-2 01,2020-028A,2026-07-20T13:34:17.639616,15.11930193,.00110511,97.4890,193.3095,88.5605,271.6891,0,U,45602,999,33988,.79690349E-4,.1303E-4,0
XINGYUN-2 02,2020-028B,2026-07-20T14:47:30.757344,15.11653007,.00116191,97.5080,207.0235,148.4037,211.7893,0,U,45603,999,33988,.10359256E-3,.1699E-4,0
HAIYANG-1D,2020-036A,2026-07-20T14:24:46.143648,14.34182135,.00039335,98.4560,142.5551,60.1388,300.0187,0,U,45721,999,31976,-.17020214E-4,-.91E-6,0
M2 PATHFINDER,2020-037E,2026-07-20T11:53:15.873504,15.04802029,.0012419,97.8142,33.1041,45.5834,314.6406,0,U,45727,999,33050,.92943615E-4,.1249E-4,0
GAOFEN DUOMO (GFDM),2020-042A,2026-07-20T14:36:51.582240,14.76808112,.00102333,97.7723,260.2760,335.2056,24.8661,0,U,45856,999,32594,.12479118E-3,.827E-5,0
ZIYUAN 3-03 (ZY 3-03),2020-051A,2026-07-20T14:20:56.558112,15.21223938,.00032079,97.5355,268.6207,219.1068,140.9936,0,U,45939,999,33242,.12679181E-3,.2759E-4,0
NEMO-HD,2020-061F,2026-07-20T14:47:17.950272,15.45209521,.00010325,97.1896,263.2424,112.2201,247.9158,0,U,46277,999,32714,.15321787E-3,.7187E-4,0
NAPA-1,2020-061BA,2026-07-19T17:26:08.117376,15.72452869,.00026763,97.2430,276.0804,168.7588,191.3736,0,U,46320,999,32684,.42592463E-3,.56779E-3,0
JILIN-1 GAOFEN 3E,2020-065D,2026-07-20T13:58:49.640736,15.67758274,.00092227,97.2204,255.0600,53.8643,306.3470,0,U,46457,999,32498,.47659054E-3,.52411E-3,0
JILIN-1 GAOFEN 3F,2020-065E,2026-07-20T14:36:20.570688,15.64377273,.00105723,97.2160,252.2467,39.0972,321.1050,0,U,46458,999,32492,.45064391E-3,.43266E-3,0
JILIN-1 GAOFEN 3G,2020-065F,2026-07-20T13:49:55.994592,15.77855865,.00061139,97.2211,259.6498,249.6876,110.3734,0,U,46459,999,32519,.55614699E-3,.9422E-3,0
JILIN-1 GAOFEN 3H,2020-065G,2026-07-20T13:44:24.389664,15.72977493,.00070449,97.2165,255.7375,185.8279,174.2905,0,U,46460,999,32512,.542898E-3,.74274E-3,0
HAIYANG-2C,2020-066A,2026-07-20T15:19:04.131264,13.83373133,.0007359,65.9974,131.9999,237.1324,122.9037,0,U,46469,999,29412,-.26714448E-4,-.111E-5,0
HJ-2A,2020-067A,2026-07-20T13:47:12.899904,14.76552280,.00045779,97.8815,279.1563,140.8201,219.3341,0,U,46478,999,31318,.59269438E-4,.364E-5,0
HJ-2B,2020-067B,2026-07-20T14:40:00.272928,14.76515208,.00021233,97.8880,280.2404,101.5902,258.5546,0,U,46479,999,31319,.76154778E-4,.481E-5,0
GONETS-M 17,2020-068A,2026-07-20T14:47:02.176224,12.42873771,.00216463,82.5020,326.7066,324.4181,35.5454,0,U,46486,999,26331,-.34814412E-3,-.38E-6,0
GONETS-M 18,2020-068B,2026-07-20T13:54:40.923648,12.42874811,.00188681,82.4973,325.8344,320.9472,39.0244,0,U,46487,999,26329,-.24844272E-3,-.25E-6,0
GONETS-M 19,2020-068C,2026-07-20T15:14:31.567776,12.42892690,.00128169,82.4998,326.2565,337.7615,22.2908,0,U,46488,999,26340,-.23946976E-3,-.23E-6,0
DEKART,2020-068H,2026-07-20T12:35:07.026432,15.38023030,.00098287,97.8749,213.2000,155.2297,204.9420,0,U,46493,999,32089,.19897509E-3,.7362E-4,0
