FLORIPASAT-1            
1 44885U 19093G   26201.55646388  .00003048  00000+0  22401-3 0  9993
2 44885  97.7905 296.0392 0010554 320.0733  39.9715 15.04166486357664
SHUNTIAN                
1 44886U 19093H   26201.60141317  .00001744  00000+0  16349-3 0  9997
2 44886  97.8007 289.5942 0010327 320.2052  39.8410 14.95295461357173
ELEKTRO-L 3             
1 44903U 19095A   26200.16483560 -.00000102  00000+0  00000+0 0  9999
2 44903   0.3374  82.3610 0001481  18.7927 331.1277  1.00271683 24027
GONETS-M 14             
1 44905U 19096A   26201.61594030  .00000089  00000+0  56987-3 0  9990
2 44905  82.5210  63.9124 0014443  79.6125 280.6582 12.42871302297833
GONETS-M 15             
1 44906U 19096B   26201.56471825  .00000111  00000+0  72753-3 0  9996
2 44906  82.5229  64.4108 0016203 101.2461 259.0441 12.42883723297792
GONETS-M 16             
1 44907U 19096C   26201.59048770  .00000085  00000+0  54445-3 0  9997
2 44907  82.5175  63.3315 0011233 139.9368 220.2542 12.42893050297788
RS-44 & BREEZE-KM R/B   
1 44909U 19096E   26201.38823454  .00000004  00000+0 -34713-4 0  9995
2 44909  82.5239 317.6447 0218421  66.9076 295.4886 12.79748857306594
JILIN-1 KUANFU 01       
1 45016U 20003A   26201.53375122  .00001614  00000+0  10072-3 0  9994
2 45016  97.5015 274.8392 0009789 178.5074 181.6187 15.10884643360365
XINGYUN-2 01            
1 45602U 20028A   26201.56548194  .00001303  00000+0  79690-4 0  9993
2 45602  97.4890 193.3095 0011051  88.5605 271.6891 15.11930193339884
XINGYUN-2 02            
1 45603U 20028B   26201.61632821  .00001699  00000+0  10359-3 0  9995
2 45603  97.5080 207.0235 0011619 148.4037 211.7893 15.11653007339884
HAIYANG-1D              
1 45721U 20036A   26201.60053407 -.00000091  00000+0 -17020-4 0  9991
2 45721  98.4560 142.5551 0003933  60.1388 300.0187 14.34182135319767
M2 PATHFINDER           
1 45727U 20037E   26201.49532261  .00001249  00000+0  92944-4 0  9997
2 45727  97.8142  33.1041 0012419  45.5834 314.6406 15.04802029330502
GAOFEN DUOMO (GFDM)     
1 45856U 20042A   26201.60893035  .00000827  00000+0  12479-3 0  9993
2 45856  97.7723 260.2760 0010233 335.2056  24.8661 14.76808112325949
ZIYUAN 3-03 (ZY 3-03)   
1 45939U 20051A   26201.59787683  .00002759  00000+0  12679-3 0  9992
2 45939  97.5355 268.6207 0003207 219.1068 140.9936 15.21223938332428
NEMO-HD                 
1 46277U 20061F   26201.61617998  .00007187  00000+0  15322-3 0  9991
2 46277  97.1896 263.2424 0001032 112.2201 247.9158 15.45209521327143
NAPA-1                  
1 46320U 20061BA  26200.72648284  .00056779  00000+0  42592-3 0  9993
2 46320  97.2430 276.0804 0002676 168.7588 191.3736 15.72452869326845
JILIN-1 GAOFEN 3E       
1 46457U 20065D   26201.58251899  .00052411  00000+0  47659-3 0  9993
2 46457  97.2204 255.0600 0009222  53.8643 306.3470 15.67758274324985
JILIN-1 GAOFEN 3F       
1 46458U 20065E   26201.60857142  .00043266  00000+0  45064-3 0  9996
2 46458  97.2160 252.2467 0010572  39.0972 321.1050 15.64377273324924
JILIN-1 GAOFEN 3G       
1 46459U 20065F   26201.57634253  .00094220  00000+0  55615-3 0  9998
2 46459  97.2211 259.6498 0006113 249.6876 110.3734 15.77855865325194
JILIN-1 GAOFEN 3H       
1 46460U 20065G   26201.57250451  .00074274  00000+0  54290-3 0  9999
2 46460  97.2165 255.7375 0007044 185.8279 174.2905 15.72977493325126
HAIYANG-2C              
1 46469U 20066A   26201.63824226 -.00000111  00000+0 -26714-4 0  9995
2 46469  65.9974 131.9999 0007359 237.1324 122.9037 13.83373133294125
HJ-2A                   
1 46478U 20067A   26201.57445486  .00000364  00000+0  59269-4 0  9995
2 46478  97.8815 279.1563 0004577 140.8201 219.3341 14.76552280313180
HJ-2B                   
1 46479U 20067B   26201.61111427  .00000481  00000+0  76155-4 0  9999
2 46479  97.8880 280.2404 0002123 101.5902 258.5546 14.76515208313199
GONETS-M 17             
1 46486U 20068A   26201.61599741 -.00000038  00000+0 -34814-3 0  9992
2 46486  82.5020 326.7066 0021646 324.4181  35.5454 12.42873771263312
GONETS-M 18             
1 46487U 20068B   26201.57964032 -.00000025  00000+0 -24844-3 0  9995
2 46487  82.4973 325.8344 0018868 320.9472  39.0244 12.42874811263293
GONETS-M 19             
1 46488U 20068C   26201.63508759 -.00000023  00000+0 -23947-3 0  9994
2 46488  82.4998 326.2565 0012816 337.7615  22.2908 12.42892690263402
DEKART                  
1 46493U 20068H   26201.52438688  .00007362  00000+0  19898-3 0  9992
2 46493  97.8749 213.2000 0009828 155.2297 204.9420 15.38023030320896
